NORAD_CAT_ID,OBJECT_NAME,OBJECT_TYPE,EPOCH,MEAN_MOTION,ECCENTRICITY,INCLINATION,RA_OF_ASC_NODE,ARG_OF_PERICENTER,MEAN_ANOMALY,BSTAR,MEAN_MOTION_DOT,MEAN_MOTION_DDOT,TLE_LINE0,TLE_LINE1,TLE_LINE2,SEMIMAJOR_AXIS,PERIOD,APOGEE,PERIGEE,DECAYED
55675.0,STARLINK-5232,PAYLOAD,2023-03-19 08:25:47,15.69927851,0.000352,70.0006,66.7511,265.4048,94.6745,5.6578e-06,4.68e-06,0.0,0 STARLINK-5232,1 55675U 23021AZ  23078.35124825  .00000468  00000-0  56578-5 0  9990,2 55675  70.0006  66.7511 0003520 265.4048  94.6745 15.69927851  5494,6737.24,91.724,361.477,356.734,0.0
55675.0,STARLINK-5232,PAYLOAD,2023-03-19 16:04:33,15.69922081,0.0003377,70.0002,65.8554,266.4716,93.6094,4.3962e-06,3.16e-06,0.0,0 STARLINK-5232,1 55675U 23021AZ  23078.66983490  .00000316  00000-0  43962-5 0  9990,2 55675  70.0002  65.8554 0003377 266.4716  93.6094 15.69922081  5238,6737.257,91.724,361.397,356.847,0.0
55675.0,STARLINK-5232,PAYLOAD,2023-03-19 22:11:34,15.69920878,0.0003577,70.0,65.1385,265.3194,94.7593,5.4739e-06,4.45e-06,0.0,0 STARLINK-5232,1 55675U 23021AZ  23078.92470186  .00000445  00000-0  54739-5 0  9999,2 55675  70.0000  65.1385 0003577 265.3194  94.7593 15.69920878  5587,6737.26,91.724,361.535,356.715,0.0
55675.0,STARLINK-5232,PAYLOAD,2023-03-20 05:50:18,15.69940814,0.0003445,69.9987,64.2436,258.5852,101.4957,1.8867e-05,2.058e-05,0.0,0 STARLINK-5232,1 55675U 23021AZ  23079.24327250  .00002058  00000-0  18867-4 0  9991,2 55675  69.9987  64.2436 0003445 258.5852 101.4957 15.69940814  5328,6737.203,91.723,361.389,356.747,0.0
55675.0,STARLINK-5232,PAYLOAD,2023-03-20 10:25:36,15.69908704,0.000282,69.9993,63.7058,263.2612,96.8263,-1.4303e-05,-1.931e-05,0.0,0 STARLINK-5232,1 55675U 23021AZ  23079.43444912 -.00001931  00000-0 -14303-4 0  9999,2 55675  69.9993  63.7058 0002820 263.2612  96.8263 15.69908704  5354,6737.295,91.725,361.06,357.26,0.0
55675.0,STARLINK-5232,PAYLOAD,2023-03-20 16:32:36,15.69913669,0.0003123,69.9984,62.9883,264.4644,95.6195,-1.3771e-06,-3.78e-06,0.0,0 STARLINK-5232,1 55675U 23021AZ  23079.68931117 -.00000378  00000-0 -13771-5 0  9997,2 55675  69.9984  62.9883 0003123 264.4644  95.6195 15.69913669  5702,6737.281,91.725,361.25,357.042,0.0
55675.0,STARLINK-5232,PAYLOAD,2023-03-20 22:39:36,15.69919743,0.000362,69.9983,62.2724,266.9761,93.102,4.0765e-06,2.77e-06,0.0,0 STARLINK-5232,1 55675U 23021AZ  23079.94417253  .00000277  00000-0  40765-5 0  9995,2 55675  69.9983  62.2724 0003620 266.9761  93.1020 15.69919743  5436,6737.264,91.724,361.568,356.69,0.0
55675.0,STARLINK-5232,PAYLOAD,2023-03-21 07:50:06,15.6993422,0.000347,69.9983,61.1966,264.6788,95.4012,1.0065e-05,9.98e-06,0.0,0 STARLINK-5232,1 55675U 23021AZ  23080.32646147  .00000998  00000-0  10065-4 0  9994,2 55675  69.9983  61.1966 0003470 264.6788  95.4012 15.69934220  5498,6737.222,91.724,361.425,356.749,0.0
55675.0,STARLINK-5232,PAYLOAD,2023-03-21 10:53:38,15.69909963,0.0003202,69.9991,60.8396,273.9367,86.1462,-7.8204e-06,-1.152e-05,0.0,0 STARLINK-5232,1 55675U 23021AZ  23080.45391467 -.00001152  00000-0 -78204-5 0  9995,2 55675  69.9991  60.8396 0003202 273.9367  86.1462 15.69909963  5514,6737.292,91.725,361.314,356.999,0.0
55675.0,STARLINK-5232,PAYLOAD,2023-03-22 05:14:38,15.69939935,0.0002842,69.9987,58.6895,264.0068,96.0803,8.6006e-06,8.22e-06,0.0,0 STARLINK-5232,1 55675U 23021AZ  23081.21849564  .00000822  00000-0  86006-5 0  9996,2 55675  69.9987  58.6895 0002842 264.0068  96.0803 15.69939935  5630,6737.206,91.723,360.986,357.156,0.0
55675.0,STARLINK-5232,PAYLOAD,2023-03-22 08:18:09,15.6991711,0.0002737,70.0015,58.3307,269.0967,90.9915,-1.7549e-06,-4.23e-06,0.0,0 STARLINK-5232,1 55675U 23021AZ  23081.34594165 -.00000423  00000-0 -17549-5 0  9999,2 55675  70.0015  58.3307 0002737 269.0967  90.9915 15.69917110  5656,6737.271,91.725,360.98,357.292,0.0
55675.0,STARLINK-5232,PAYLOAD,2023-03-22 15:56:55,15.69919172,0.0002646,70.001,57.4352,270.1617,89.9275,2.294e-05,2.546e-05,0.0,0 STARLINK-5232,1 55675U 23021AZ  23081.66452565  .00002546  00000-0  22940-4 0  9997,2 55675  70.0010  57.4352 0002646 270.1617  89.9275 15.69919172  6013,6737.265,91.724,360.913,357.348,0.0
55675.0,STARLINK-5232,PAYLOAD,2023-03-23 01:07:25,15.69926197,0.0003176,70.0028,56.3608,273.0653,87.018,1.8256e-05,1.983e-05,0.0,0 STARLINK-5232,1 55675U 23021AZ  23082.04682122  .00001983  00000-0  18256-4 0  9993,2 55675  70.0028  56.3608 0003176 273.0653  87.0180 15.69926197  5765,6737.245,91.724,361.25,356.97,0.0
55675.0,STARLINK-5232,PAYLOAD,2023-03-23 08:46:10,15.69925458,0.0003227,70.0008,55.4645,268.2981,91.7845,-4.2877e-06,-7.28e-06,0.0,0 STARLINK-5232,1 55675U 23021AZ  23082.36540480 -.00000728  00000-0 -42877-5 0  9993,2 55675  70.0008  55.4645 0003227 268.2981  91.7845 15.69925458  6121,6737.247,91.724,361.286,356.938,0.0
55675.0,STARLINK-5232,PAYLOAD,2023-03-24 04:38:55,15.69972707,0.0003422,70.0013,53.1385,265.6982,94.3822,9.1544e-05,0.00010831,0.0,0 STARLINK-5232,1 55675U 23021AZ  23083.19369798  .00010831  00000-0  91544-4 0  9994,2 55675  70.0013  53.1385 0003422 265.6982  94.3822 15.69972707  5944,6737.112,91.721,361.283,356.672,0.0
55675.0,STARLINK-5232,PAYLOAD,2023-03-24 07:42:27,15.6992007,0.0002975,70.0018,52.7796,283.4131,76.6733,-2.1005e-05,-2.737e-05,0.0,0 STARLINK-5232,1 55675U 23021AZ  23083.32115277 -.00002737  00000-0 -21005-4 0  9993,2 55675  70.0018  52.7796 0002975 283.4131  76.6733 15.69920070  5968,6737.263,91.724,361.132,357.123,0.0
55675.0,STARLINK-5232,PAYLOAD,2023-03-24 15:21:13,15.69909425,0.0003213,70.0035,51.8828,274.8223,85.2605,-4.2497e-05,-5.316e-05,0.0,0 STARLINK-5232,1 55675U 23021AZ  23083.63973922 -.00005316  00000-0 -42497-4 0  9990,2 55675  70.0035  51.8828 0003213 274.8223  85.2605 15.69909425  6321,6737.293,91.725,361.323,356.993,0.0
55675.0,STARLINK-5232,PAYLOAD,2023-03-25 00:31:46,15.69869174,0.0003422,70.0029,50.808,270.3214,89.7589,-0.00012183,-0.00014803,0.0,0 STARLINK-5232,1 55675U 23021AZ  23084.02206168 -.00014803  00000-0 -12183-3 0  9994,2 55675  70.0029  50.8080 0003422 270.3214  89.7589 15.69869174  6074,6737.408,91.727,361.579,356.968,0.0
55675.0,STARLINK-5232,PAYLOAD,2023-03-25 08:10:31,15.69889791,0.0003165,70.0021,49.9121,245.9754,114.1111,-6.3132e-05,-7.785e-05,0.0,0 STARLINK-5232,1 55675U 23021AZ  23084.34064246 -.00007785  00000-0 -63132-4 0  9990,2 55675  70.0021  49.9121 0003165 245.9754 114.1111 15.69889791  6129,6737.349,91.726,361.347,357.082,0.0
55675.0,STARLINK-5232,PAYLOAD,2023-03-26 04:03:16,15.69925036,0.0003639,70.0024,47.5847,267.6964,92.3815,-3.355e-06,-6.16e-06,0.0,0 STARLINK-5232,1 55675U 23021AZ  23085.16894052 -.00000616  00000-0 -33550-5 0  9995,2 55675  70.0024  47.5847 0003639 267.6964  92.3815 15.69925036  6256,6737.248,91.724,361.565,356.662,0.0
55675.0,STARLINK-5232,PAYLOAD,2023-03-26 22:24:18,15.69920286,0.0003368,70.0035,45.4352,269.1326,90.9484,4.4685e-05,5.163e-05,0.0,0 STARLINK-5232,1 55675U 23021AZ  23085.93354752  .00005163  00000-0  44685-4 0  9998,2 55675  70.0035  45.4352 0003368 269.1326  90.9484 15.69920286  6689,6737.262,91.724,361.396,356.858,0.0
55675.0,STARLINK-5232,PAYLOAD,2023-03-26 23:56:04,15.699111,0.0003527,70.0024,45.2561,266.1789,93.9003,6.7952e-05,7.962e-05,0.0,0 STARLINK-5232,1 55675U 23021AZ  23085.99726915  .00007962  00000-0  67952-4 0  9999,2 55675  70.0024  45.2561 0003527 266.1789  93.9003 15.69911100  6386,6737.288,91.725,361.53,356.777,0.0
55675.0,STARLINK-5232,PAYLOAD,2023-03-27 07:34:49,15.69921567,0.0003193,70.0021,44.3604,261.8103,98.2731,5.0612e-05,5.877e-05,0.0,0 STARLINK-5232,1 55675U 23021AZ  23086.31585046  .00005877  00000-0  50612-4 0  9992,2 55675  70.0021  44.3604 0003193 261.8103  98.2731 15.69921567  6746,6737.258,91.724,361.275,356.972,0.0
55675.0,STARLINK-5232,PAYLOAD,2023-03-28 06:31:05,15.69930644,0.0003421,70.0013,41.6716,258.2332,101.848,2.7921e-05,3.147e-05,0.0,0 STARLINK-5232,1 55675U 23021AZ  23087.27159221  .00003147  00000-0  27921-4 0  9995,2 55675  70.0013  41.6716 0003421 258.2332 101.8480 15.69930644  6589,6737.232,91.724,361.402,356.793,0.0
55675.0,STARLINK-5232,PAYLOAD,2023-03-28 21:48:37,15.69924856,0.0003389,70.0008,39.8801,255.2002,104.8818,1.8192e-05,1.975e-05,0.0,0 STARLINK-5232,1 55675U 23021AZ  23087.90876298  .00001975  00000-0  18192-4 0  9992,2 55675  70.0008  39.8801 0003389 255.2002 104.8818 15.69924856  6992,6737.249,91.724,361.397,356.831,0.0
55675.0,STARLINK-5232,PAYLOAD,2023-03-28 23:20:22,15.69924783,0.0003405,70.0012,39.7015,252.0758,108.0067,2.4355e-05,2.717e-05,0.0,0 STARLINK-5232,1 55675U 23021AZ  23087.97247943  .00002717  00000-0  24355-4 0  9991,2 55675  70.0012  39.7015 0003405 252.0758 108.0067 15.69924783  6693,6737.249,91.724,361.408,356.82,0.0
55675.0,STARLINK-5232,PAYLOAD,2023-03-29 06:59:08,15.69915246,0.0003024,70.0019,38.8064,257.9061,102.1796,-3.486e-06,-6.31e-06,0.0,0 STARLINK-5232,1 55675U 23021AZ  23088.29106643 -.00000631  00000-0 -34860-5 0  9996,2 55675  70.0019  38.8064 0003024 257.9061 102.1796 15.69915246  6746,6737.276,91.725,361.179,357.104,0.0
55675.0,STARLINK-5232,PAYLOAD,2023-03-30 05:55:25,15.69916671,0.0003179,70.0014,36.1191,252.9128,107.172,5.7455e-05,6.699e-05,0.0,0 STARLINK-5232,1 55675U 23021AZ  23089.24681862  .00006699  00000-0  57455-4 0  9995,2 55675  70.0014  36.1191 0003179 252.9128 107.1720 15.69916671  6894,6737.272,91.725,361.279,356.996,0.0
55675.0,STARLINK-5232,PAYLOAD,2023-03-31 07:55:11,15.69922126,0.0003622,70.0009,33.0732,269.1572,90.9208,-1.6591e-07,-2.33e-06,0.0,0 STARLINK-5232,1 55675U 23021AZ  23090.32999694 -.00000233  00000-0 -16591-6 0  9999,2 55675  70.0009  33.0732 0003622 269.1572  90.9208 15.69922126  7063,6737.257,91.724,361.562,356.682,0.0
55675.0,STARLINK-5232,PAYLOAD,2023-04-01 05:19:43,15.69929434,0.0003108,70.0005,30.5649,259.7179,100.3667,2.178e-05,2.407e-05,0.0,0 STARLINK-5232,1 55675U 23021AZ  23091.22202996  .00002407  00000-0  21780-4 0  9998,2 55675  70.0005  30.5649 0003108 259.7179 100.3667 15.69929434  7519,6737.236,91.724,361.195,357.007,0.0
